[Satellite]
VERSION=1.1
NAME=GLOBALSTAR M068
NICKNAME=GLOBALSTAR M068
TLE1=1 32266U 07048D   15054.78156106 -.00000054  00000-0  27817-3 0  9995
TLE2=2 32266  51.9864 261.4334 0001678  68.8935  11.4773 12.62659928342022
